NORAD_CAT_ID,OBJECT_NAME,OBJECT_TYPE,EPOCH,MEAN_MOTION,ECCENTRICITY,INCLINATION,RA_OF_ASC_NODE,ARG_OF_PERICENTER,MEAN_ANOMALY,BSTAR,MEAN_MOTION_DOT,MEAN_MOTION_DDOT,TLE_LINE0,TLE_LINE1,TLE_LINE2,SEMIMAJOR_AXIS,PERIOD,APOGEE,PERIGEE,DECAYED
51138.0,STARLINK-3177,PAYLOAD,2022-03-28 22:00:00,15.48839557,0.0001641,53.2136,295.733,43.4735,175.0027,0.00023638,0.00012506,0.0,0 STARLINK-3177,1 51138U 22005AL  22087.91667824  .00012506  00000-0  23638-3 0  9998,2 51138  53.2136 295.7330 0001641  43.4735 175.0027 15.48839557 12131,6798.257,92.973,421.237,419.006,0.0
51138.0,STARLINK-3177,PAYLOAD,2022-03-29 14:00:01,15.488143300000004,0.0001382,53.2135,292.5499,49.9175,287.7966,0.00049906,0.00026925,0.0,0 STARLINK-3177,1 51138U 22005AL  22088.58334491  .00026925  00000-0  49906-3 0  9999,2 51138  53.2135 292.5499 0001382  49.9175 287.7966 15.48814330 12238,6798.33,92.974,421.135,419.256,0.0
51138.0,STARLINK-3177,PAYLOAD,2022-03-29 22:00:00,15.48817159,0.0001584,53.2133,290.9612,42.7315,354.6237,0.00057237,0.00030965,0.0,0 STARLINK-3177,1 51138U 22005AL  22088.91667824  .00030965  00000-0  57237-3 0  9990,2 51138  53.2133 290.9612 0001584  42.7315 354.6237 15.48817159  3648,6798.321999999999,92.974,421.264,419.11,0.0
51138.0,STARLINK-3177,PAYLOAD,2022-03-30 12:00:00,15.49083202,0.0001675,53.2157,288.171,40.097,11.5956,-0.0037887,-0.00204128,0.0,0 STARLINK-3177,1 51138U 22005AL  22089.50001157 -.00204128  00000-0 -37887-2 0  9991,2 51138  53.2157 288.1710 0001675  40.0970  11.5956 15.49083202 12373,6797.544,92.958,420.547,418.27,0.0
51138.0,STARLINK-3177,PAYLOAD,2022-03-30 14:00:01,15.49346216,0.0001733,53.2161,287.7731,49.008,107.6382,-0.015803,-0.00807278,0.0,0 STARLINK-3177,1 51138U 22005AL  22089.58335648 -.00807278  00000-0 -15803-1 0  9992,2 51138  53.2161 287.7731 0001733  49.0080 107.6382 15.49346216  3650,6796.774,92.942,419.817,417.462,0.0
51138.0,STARLINK-3177,PAYLOAD,2022-03-30 20:00:01,15.48835937,0.0001839,53.2172,286.58,35.6757,75.9391,-0.014107,-0.00714952,0.0,0 STARLINK-3177,1 51138U 22005AL  22089.83334491 -.00714952  00000-0 -14107-1 0  9997,2 51138  53.2172 286.5800 0001839  35.6757  75.9391 15.48835937 12429,6798.267,92.973,421.382,418.882,0.0
51138.0,STARLINK-3177,PAYLOAD,2022-03-30 22:00:00,15.48712647,0.000182,53.2175,286.1824,40.2435,176.2628,-0.014257,-0.00719089,0.0,0 STARLINK-3177,1 51138U 22005AL  22089.91667824 -.00719089  00000-0 -14257-1 0  9997,2 51138  53.2175 286.1824 0001820  40.2435 176.2628 15.48712647  3700,6798.628000000002,92.98,421.73,419.256,0.0
51138.0,STARLINK-3177,PAYLOAD,2022-03-31 14:00:01,15.47694705,0.0001541999999999,53.2177,283.0018,41.802,292.4815,-0.0148389999999999,-0.00721875,0.0,0 STARLINK-3177,1 51138U 22005AL  22090.58334491 -.00721875  00000-0 -14839-1 0  9995,2 51138  53.2177 283.0018 0001542  41.8020 292.4815 15.47694705  3679,6801.609,93.042,424.523,422.425,0.0
51138.0,STARLINK-3177,PAYLOAD,2022-03-31 22:00:00,15.4708881,0.0001624,53.2171,281.4171,45.5579,346.742,-0.012222,-0.00584327,0.0,0 STARLINK-3177,1 51138U 22005AL  22090.91667824 -.00584327  00000-0 -12222-1 0  9994,2 51138  53.2171 281.4171 0001624  45.5579 346.7420 15.47088810 12596,6803.384,93.078,426.354,424.145,0.0
51138.0,STARLINK-3177,PAYLOAD,2022-04-01 06:00:00,15.4667327,0.0001541,53.2175,279.8282,40.2551,49.355,-0.015334,-0.00719993,0.0,0 STARLINK-3177,1 51138U 22005AL  22091.25001157 -.00719993  00000-0 -15334-1 0  9999,2 51138  53.2175 279.8282 0001541  40.2551  49.3550 15.46673270 12649,6804.603,93.103,427.517,425.419,0.0
51138.0,STARLINK-3177,PAYLOAD,2022-04-01 14:00:01,15.46162869,0.0001838,53.2177,278.2429,35.7356,110.6184,-0.015583,-0.00718974,0.0,0 STARLINK-3177,1 51138U 22005AL  22091.58334491 -.00718974  00000-0 -15583-1 0  9999,2 51138  53.2177 278.2429 0001838  35.7356 110.6184 15.46162869  3695,6806.1,93.134,429.216,426.714,0.0
51138.0,STARLINK-3177,PAYLOAD,2022-04-01 22:00:00,15.45650993,0.0001847,53.2175,276.6606,39.6773,162.8073,-0.015785,-0.00715774,0.0,0 STARLINK-3177,1 51138U 22005AL  22091.91667824 -.00715774  00000-0 -15785-1 0  9994,2 51138  53.2175 276.6606 0001847  39.6773 162.8073 15.45650993  3659,6807.603,93.165,430.725,428.211,0.0
51138.0,STARLINK-3177,PAYLOAD,2022-04-02 06:00:00,15.45145174,0.0001649,53.2175,275.0763,43.0214,214.9809,-0.016231,-0.007227,0.0,0 STARLINK-3177,1 51138U 22005AL  22092.25001157 -.00722700  00000-0 -16231-1 0  9997,2 51138  53.2175 275.0763 0001649  43.0214 214.9809 15.45145174 12808,6809.089,93.195,432.076,429.831,0.0
51138.0,STARLINK-3177,PAYLOAD,2022-04-02 22:00:01,15.44027875,0.0001601,53.2167,271.9175,49.1969,318.1153,-0.013537,-0.00582517,0.0,0 STARLINK-3177,1 51138U 22005AL  22092.91668981 -.00582517  00000-0 -13537-1 0  9990,2 51138  53.2167 271.9175 0001601  49.1969 318.1153 15.44027875  3640,6812.373000000001,93.263,435.329,433.147,0.0
51138.0,STARLINK-3177,PAYLOAD,2022-04-03 14:00:01,15.43103865,0.000181,53.2174,268.7579,34.9738,78.9738,-0.017339,-0.00720286,0.0,0 STARLINK-3177,1 51138U 22005AL  22093.58334491 -.00720286  00000-0 -17339-1 0  9991,2 51138  53.2174 268.7579 0001810  34.9738  78.9738 15.43103865 13002,6815.092,93.318,438.191,435.724,0.0
51138.0,STARLINK-3177,PAYLOAD,2022-04-03 22:00:00,15.42588981,0.0001864,53.2174,267.1829,36.4853,129.9172,-0.0174229999999999,-0.00711944,0.0,0 STARLINK-3177,1 51138U 22005AL  22093.91667824 -.00711944  00000-0 -17423-1 0  9992,2 51138  53.2174 267.1829 0001864  36.4853 129.9172 15.42588981  3662,6816.609,93.35,439.744,437.203,0.0
51138.0,STARLINK-3177,PAYLOAD,2022-04-04 14:00:01,15.41573525,0.0001814,53.2175,264.0317,38.4781,230.9937,-0.018223,-0.00719039,0.0,0 STARLINK-3177,1 51138U 22005AL  22094.58334491 -.00719039  00000-0 -18223-1 0  9999,2 51138  53.2175 264.0317 0001814  38.4781 230.9937 15.41573525  3678,6819.602,93.411,442.704,440.23,0.0
51138.0,STARLINK-3177,PAYLOAD,2022-04-04 22:00:00,15.41061808,0.0001636999999999,53.2175,262.4602,39.3329,280.7544,-0.018449,-0.00715818,0.0,0 STARLINK-3177,1 51138U 22005AL  22094.91667824 -.00715818  00000-0 -18449-1 0  9996,2 51138  53.2175 262.4602 0001637  39.3329 280.7544 15.41061808 13212,6821.111,93.442,444.093,441.86,0.0
51138.0,STARLINK-3177,PAYLOAD,2022-04-05 14:00:01,15.40044982,0.0001922,53.2177,259.3167,28.8464,30.6983,-0.019253,-0.00721708,0.0,0 STARLINK-3177,1 51138U 22005AL  22095.58335648 -.00721708  00000-0 -19253-1 0  9995,2 51138  53.2177 259.3167 0001922  28.8464  30.6983 15.40044982  3676,6824.113,93.504,447.29,444.667,0.0
51138.0,STARLINK-3177,PAYLOAD,2022-04-05 22:00:00,15.39530457,0.0001613,53.2173,257.7486,42.0437,66.2151,-0.019347,-0.00713571,0.0,0 STARLINK-3177,1 51138U 22005AL  22095.91667824 -.00713571  00000-0 -19347-1 0  9999,2 51138  53.2173 257.7486 0001613  42.0437  66.2151 15.39530457 13367,6825.634,93.535,448.6,446.398,0.0
51138.0,STARLINK-3177,PAYLOAD,2022-04-06 14:00:01,15.38512677,0.0002035,53.2177,254.6125,34.0394,169.93599999999995,-0.020115,-0.00717195,0.0,0 STARLINK-3177,1 51138U 22005AL  22096.58334491 -.00717195  00000-0 -20115-1 0  9995,2 51138  53.2177 254.6125 0002035  34.0394 169.9360 15.38512677  3689,6828.644,93.597,451.898,449.119,0.0
51138.0,STARLINK-3177,PAYLOAD,2022-04-06 22:00:00,15.37879722,0.0001649,53.2164,253.049,38.6698,212.31,-0.015569,-0.00548094,0.0,0 STARLINK-3177,1 51138U 22005AL  22096.91667824 -.00548094  00000-0 -15569-1 0  9998,2 51138  53.2164 253.0490 0001649  38.6698 212.3100 15.37879722 13525,6830.517,93.635,453.509,451.256,0.0
51138.0,STARLINK-3177,PAYLOAD,2022-04-07 04:00:00,15.37621525,0.0001786999999999,53.2175,251.8727,40.3871,155.3294,-0.020767,-0.00718956,0.0,0 STARLINK-3177,1 51138U 22005AL  22097.16667824 -.00718956  00000-0 -20767-1 0  9998,2 51138  53.2175 251.8727 0001787  40.3871 155.3294 15.37621525 13562,6831.281999999997,93.651,454.36800000000005,451.926,0.0
51138.0,STARLINK-3177,PAYLOAD,2022-04-07 14:00:01,15.36984291,0.0001747,53.2177,249.9191,34.6581,308.2957,-0.021219,-0.00719457,0.0,0 STARLINK-3177,1 51138U 22005AL  22097.58334491 -.00719457  00000-0 -21219-1 0  9995,2 51138  53.2177 249.9191 0001747  34.6581 308.2957 15.36984291  3663,6833.17,93.69,456.229,453.841,0.0
51138.0,STARLINK-3177,PAYLOAD,2022-04-07 22:00:00,15.36384054,0.0001729,53.2163,248.3594,37.2126,350.8952,-0.018086,-0.00602144,0.0,0 STARLINK-3177,1 51138U 22005AL  22097.91667824 -.00602144  00000-0 -18086-1 0  9993,2 51138  53.2163 248.3594 0001729  37.2126 350.8952 15.36384054  3627,6834.95,93.727,457.996,455.633,0.0
51138.0,STARLINK-3177,PAYLOAD,2022-04-08 06:00:00,15.35961886,0.0001746,53.2174,246.7953,32.8062,39.7378,-0.021812,-0.00715753,0.0,0 STARLINK-3177,1 51138U 22005AL  22098.25001157 -.00715753  00000-0 -21812-1 0  9994,2 51138  53.2174 246.7953 0001746  32.8062  39.7378 15.35961886 13729,6836.2019999999975,93.752,459.261,456.87300000000016,0.0
51138.0,STARLINK-3177,PAYLOAD,2022-04-08 14:00:03,15.3545314,0.0001949,53.2174,245.2367,32.3644,84.1818,-0.022241,-0.00717817,0.0,0 STARLINK-3177,1 51138U 22005AL  22098.58336806 -.00717817  00000-0 -22241-1 0  9992,2 51138  53.2174 245.2367 0001949  32.3644  84.1818 15.35453140  3662,6837.712,93.783,460.91,458.244,0.0
51138.0,STARLINK-3177,PAYLOAD,2022-04-08 22:00:00,15.3494281,0.0001724,53.2171,243.679,42.0998,117.5803,-0.022562,-0.00716407,0.0,0 STARLINK-3177,1 51138U 22005AL  22098.91667824 -.00716407  00000-0 -22562-1 0  9996,2 51138  53.2171 243.6790 0001724  42.0998 117.5803 15.34942810  3641,6839.227,93.815,462.271,459.913,0.0
51138.0,STARLINK-3177,PAYLOAD,2022-04-09 06:00:00,15.34432504,0.0001796,53.2172,242.1199,40.1767,162.1543,-0.022919,-0.00715985,0.0,0 STARLINK-3177,1 51138U 22005AL  22099.25001157 -.00715985  00000-0 -22919-1 0  9991,2 51138  53.2172 242.1199 0001796  40.1767 162.1543 15.34432504 13889,6840.744000000002,93.846,463.837,461.38,0.0
